{
  "norad_id": 54175,
  "name": "STARLINK-5256",
  "history": [
    {
      "epoch": "2026-03-28T19:23:25.045728",
      "apogee_km": 540.6175100311939,
      "perigee_km": 538.8668715231761,
      "latitude_deg": 52.6014998729646,
      "longitude_deg": 35.061161919962615,
      "semi_major_axis_km": 6917.879190777185,
      "eccentricity": 0.00012653,
      "inclination_deg": 53.2167,
      "raan_deg": 278.3075,
      "arg_perigee_deg": 95.3945,
      "mean_anomaly_deg": 264.7191,
      "mean_motion_rev_day": 15.08840392
    }
  ]
}